[{"OBJECT_NAME":"STARLINK-5331","OBJECT_ID":"2023-010M","EPOCH":"2026-03-09T08:48:14.967360","MEAN_MOTION":14.98330483,"ECCENTRICITY":0.00030101,"INCLINATION":70.0003,"RA_OF_ASC_NODE":45.4191,"ARG_OF_PERICENTER":270.5317,"MEAN_ANOMALY":89.5498,"EPHEMERIS_TYPE":0,"CLASSIFICATION_TYPE":"U","NORAD_CAT_ID":55280,"ELEMENT_SET_NO":999,"REV_AT_EPOCH":17272,"BSTAR":8.8162973e-5,"MEAN_MOTION_DOT":9.59e-6,"MEAN_MOTION_DDOT":0},{"OBJECT_NAME":"CZ-6A DEB","OBJECT_ID":"2022-151WD","EPOCH":"2026-03-09T18:15:50.585760","MEAN_MOTION":14.95909888,"ECCENTRICITY":0.00406186,"INCLINATION":98.6454,"RA_OF_ASC_NODE":143.7847,"ARG_OF_PERICENTER":193.5421,"MEAN_ANOMALY":166.4711,"EPHEMERIS_TYPE":0,"CLASSIFICATION_TYPE":"U","NORAD_CAT_ID":55212,"ELEMENT_SET_NO":999,"REV_AT_EPOCH":17107,"BSTAR":0.0046813987,"MEAN_MOTION_DOT":0.00053565,"MEAN_MOTION_DDOT":0}]
